CAS-2T & KS-1Q          
1 41847U 16066G   21163.39609104  .00000111  00000-0  27701-4 0  9992
2 41847  98.6013 222.5058 0364270 235.3883 121.2450 14.38194688241151
NAYIF-1 (EO-88)         
1 42017U 17008BX  21163.45361608  .00002439  00000-0  91464-4 0  9992
2 42017  97.3157 231.1426 0007589 119.7048 240.4948 15.28168295240493
ZHUHAI-1 02 (CAS-4B)    
1 42759U 17034B   21163.54400784  .00000292  00000-0  30865-4 0  9996
2 42759  43.0168 208.0736 0007458 138.4547  11.3412 15.10224380220409
ZHUHAI-1 01 (CAS-4A)    
1 42761U 17034D   21163.52791955  .00000336  00000-0  33461-4 0  9994
2 42761  43.0166 207.2201 0007776 138.8783 330.9184 15.10311787220401
MAX VALIER SAT          
1 42778U 17036P   21163.44388906  .00001304  00000-0  57258-4 0  9999
2 42778  97.2551 212.2191 0011663 185.1747 174.9372 15.23601474220524
RADFXSAT (FOX-1B)       
1 43017U 17073E   21163.46406502  .00000707  00000-0  60290-4 0  9998
2 43017  97.7074  67.6482 0253933 316.9658  41.1939 14.79558976192388
FOX-1D (AO-92)          
1 43137U 18004AC  21163.47806673  .00001445  00000-0  60344-4 0  9990
2 43137  97.4067 237.5600 0007664 220.0429 140.0244 15.25248664189903
DIWATA-2B               
1 43678U 18084H   21163.48990546 -.00000286  00000-0 -22654-4 0  9998
2 43678  97.9234 288.7436 0011319  69.7124 290.5311 14.91749607142697
ES'HAIL 2               
1 43700U 18090A   21163.53997038  .00000156  00000-0  00000-0 0  9991
2 43700   0.0154  33.6597 0000980  65.5012  22.1155  1.00273500  9323
FOX-1CLIFF (AO-95)      
1 43770U 18099N   21163.43122540  .00000123  00000-0  16286-4 0  9995
2 43770  97.6651 233.7293 0016069  76.2815 284.0194 14.95325692137709
ITASAT 1                
1 43786U 18099AE  21163.08381920  .00000701  00000-0  68079-4 0  9991
2 43786  97.6671 234.0637 0016725  71.3792 288.9244 14.95619457137684
JY1SAT (JO-97)          
1 43803U 18099AX  21163.44991075  .00000135  00000-0  17121-4 0  9992
2 43803  97.6629 234.1745 0016407  69.9104 290.3882 14.95863201137745
UWE-4                   
1 43880U 18111E   21163.50373766  .00000615  00000-0  58579-4 0  9995
2 43880  97.6881  71.3213 0013740 116.1951 244.0685 14.96872821134342
PSAT2 (NO-104)          
1 44354U 19036R   21163.35946533  .00013562  00000-0  17772-3 0  9994
2 44354  28.5277 161.0009 0325859 220.7748 136.8027 15.13376019108206
BRICSAT2 (NO-103)       
1 44355U 19036S   21163.18505654  .00034928  00000-0  38461-3 0  9998
2 44355  28.5264 117.9775 0264718 290.9176  66.3278 15.29229137108629
JAISAT-1                
1 44419U 19038F   21163.48224953  .00001181  00000-0  68967-4 0  9994
2 44419  97.5881 128.2013 0020325 334.0475  25.9735 15.13759286107047
DUCHIFAT-3              
1 44854U 19089C   21163.26641242  .00000478  00000-0  44606-4 0  9995
2 44854  36.9647 131.3079 0007015  94.2089 265.9469 14.99497679 82322
RS-44 & BREEZE-KM R/B   
1 44909U 19096E   21163.38946824  .00000025  00000-0  46739-4 0  9998
2 44909  82.5203 116.1773 0218495 104.8349 257.7065 12.79710142 68170
ORBITAL FACTORY 2 (OF-2)
1 45113U 19071C   21163.00442648  .00003205  00000-0  10159-3 0  9992
2 45113  51.6433  63.9319 0011140 274.3967  85.5743 15.35738751 76330
HUSKYSAT-1 (HO-107)     
1 45119U 19071J   21163.21114039  .00002533  00000-0  82542-4 0  9990
2 45119  51.6428  62.3078 0010530 271.5138  88.4638 15.35767745 76369
BY70-2                  
1 45857U 20042B   21163.56423081  .00001242  00000-0  18329-3 0  9994
2 45857  97.9840 239.3622 0009994 221.5665 138.4789 14.77019617 50821
SALSAT                  
1 46495U 20068K   21163.60252231 -.00000108  00000-0 -33622-5 0  9990
2 46495  97.6951 101.1272 0019065  87.6960 272.6449 15.03458464 38609
BY70-3                  
1 46839U 20079N   21163.62825432  .00003158  00000-0  99390-4 0  9994
2 46839  97.2406 237.5794 0005995 211.9638 286.8369 15.33652893 33468
RADFXSAT-2 (AO-109)     
1 47311U 21002C   21163.49557842  .00000916  00000-0  51739-4 0  9993
2 47311  60.6846 309.7558 0035892  45.2812 315.1187 15.21640898 22110
UVSQ-SAT                
1 47438U 21006AB  21163.42189923  .00000925  00000-0  55745-4 0  9992
2 47438  97.4873 224.7357 0014321 113.2850 246.9891 15.13130308 21295
DIY-1 (ARDUIQUBE)       
1 47963U 21022AH  21163.44897871  .00001945  00000-0  13277-3 0  9999
2 47963  97.5595  65.8715 0018789 327.7639  32.2439 15.07231605 11143
